[{"OBJECT_NAME":"XINGYUN-2 01","OBJECT_ID":"2020-028A","EPOCH":"2026-03-09T23:27:57.512736","MEAN_MOTION":15.11323975,"ECCENTRICITY":0.00090563,"INCLINATION":97.4853,"RA_OF_ASC_NODE":63.3977,"ARG_OF_PERICENTER":174.572,"MEAN_ANOMALY":185.561,"EPHEMERIS_TYPE":0,"CLASSIFICATION_TYPE":"U","NORAD_CAT_ID":45602,"ELEMENT_SET_NO":999,"REV_AT_EPOCH":31985,"BSTAR":0.000253969,"MEAN_MOTION_DOT":4.22e-5,"MEAN_MOTION_DDOT":0},{"OBJECT_NAME":"STARLINK-3372","OBJECT_ID":"2022-005K","EPOCH":"2026-03-09T19:41:30.469920","MEAN_MOTION":15.08825229,"ECCENTRICITY":0.00014832,"INCLINATION":53.218,"RA_OF_ASC_NODE":288.5375,"ARG_OF_PERICENTER":95.1079,"MEAN_ANOMALY":265.0082,"EPHEMERIS_TYPE":0,"CLASSIFICATION_TYPE":"U","NORAD_CAT_ID":51113,"ELEMENT_SET_NO":999,"REV_AT_EPOCH":22889,"BSTAR":0.00014903946,"MEAN_MOTION_DOT":2.084e-5,"MEAN_MOTION_DDOT":0}]
